{
  "type": "FeatureCollection",
  "features": [
    {
      "type": "Feature",
      "properties": {
        "norad_id": 40938,
        "name": "BEIDOU-3S IGSO-2S (C56)",
        "group": "beidou",
        "lat": -10.306269679384455,
        "lon": -108.04155518127429,
        "alt_km": 36026.30736335213,
        "timestamp": "2025-12-24T03:53:29.912456+00:00",
        "meta_object_name": "BEIDOU-3S IGSO-2S (C56)",
        "meta_object_id": "2015-053A",
        "meta_epoch": "2025-12-23T17:00:29.513952",
        "meta_mean_motion": 1.00267867,
        "meta_eccentricity": 0.0060642,
        "meta_inclination": 49.4936,
        "meta_ra_of_asc_node": 260.877,
        "meta_arg_of_pericenter": 188.6586,
        "meta_mean_anomaly": 353.8857,
        "meta_ephemeris_type": 0,
        "meta_classification_type": "U",
        "meta_norad_cat_id": 40938,
        "meta_element_set_no": 999,
        "meta_rev_at_epoch": 3759,
        "meta_bstar": 0,
        "meta_mean_motion_dot": -1.09e-06,
        "meta_mean_motion_ddot": 0,
        "tle_line1": "1 40938U 15053A   25357.70867493 -.00000109  00000+0  00000+0 0  9993",
        "tle_line2": "2 40938  49.4936 260.8770 0060642 188.6586 353.8857  1.00267867 37591"
      },
      "geometry": {
        "type": "Point",
        "coordinates": [
          -108.04155518127429,
          -10.306269679384455
        ]
      }
    },
    {
      "type": "Feature",
      "properties": {
        "norad_id": 41434,
        "name": "BEIDOU-2 IGSO-6 (C13)",
        "group": "beidou",
        "lat": -21.27386427391374,
        "lon": -127.17819761625857,
        "alt_km": 35550.924422727825,
        "timestamp": "2025-12-24T03:53:29.912468+00:00",
        "meta_object_name": "BEIDOU-2 IGSO-6 (C13)",
        "meta_object_id": "2016-021A",
        "meta_epoch": "2025-12-18T14:33:38.837664",
        "meta_mean_motion": 1.00292299,
        "meta_eccentricity": 0.00610054,
        "meta_inclination": 59.9732,
        "meta_ra_of_asc_node": 39.8392,
        "meta_arg_of_pericenter": 230.2031,
        "meta_mean_anomaly": 129.1398,
        "meta_ephemeris_type": 0,
        "meta_classification_type": "U",
        "meta_norad_cat_id": 41434,
        "meta_element_set_no": 999,
        "meta_rev_at_epoch": 3566,
        "meta_bstar": 0,
        "meta_mean_motion_dot": -1.41e-06,
        "meta_mean_motion_ddot": 0,
        "tle_line1": "1 41434U 16021A   25352.60669951 -.00000141  00000+0  00000+0 0  9990",
        "tle_line2": "2 41434  59.9732  39.8392 0061005 230.2031 129.1398  1.00292299 35667"
      },
      "geometry": {
        "type": "Point",
        "coordinates": [
          -127.17819761625857,
          -21.27386427391374
        ]
      }
    },
    {
      "type": "Feature",
      "properties": {
        "norad_id": 41586,
        "name": "BEIDOU-2 G7 (C03)",
        "group": "beidou",
        "lat": -0.4473372035485649,
        "lon": -98.2700069598159,
        "alt_km": 35808.299550690295,
        "timestamp": "2025-12-24T03:53:29.912480+00:00",
        "meta_object_name": "BEIDOU-2 G7 (C03)",
        "meta_object_id": "2016-037A",
        "meta_epoch": "2025-12-23T20:30:17.072064",
        "meta_mean_motion": 1.00269548,
        "meta_eccentricity": 0.00052,
        "meta_inclination": 1.7824,
        "meta_ra_of_asc_node": 67.8846,
        "meta_arg_of_pericenter": 1.3115,
        "meta_mean_anomaly": 81.4535,
        "meta_ephemeris_type": 0,
        "meta_classification_type": "U",
        "meta_norad_cat_id": 41586,
        "meta_element_set_no": 999,
        "meta_rev_at_epoch": 513,
        "meta_bstar": 0,
        "meta_mean_motion_dot": -3.33e-06,
        "meta_mean_motion_ddot": 0,
        "tle_line1": "1 41586U 16037A   25357.85436426 -.00000333  00000+0  00000+0 0  9999",
        "tle_line2": "2 41586   1.7824  67.8846 0005200   1.3115  81.4535  1.00269548  5135"
      },
      "geometry": {
        "type": "Point",
        "coordinates": [
          -98.2700069598159,
          -0.4473372035485649
        ]
      }
    },
    {
      "type": "Feature",
      "properties": {
        "norad_id": 43001,
        "name": "BEIDOU-3 M1 (C19)",
        "group": "beidou",
        "lat": 40.62886467423781,
        "lon": 103.39767821876399,
        "alt_km": 21531.858571363176,
        "timestamp": "2025-12-24T03:53:29.912492+00:00",
        "meta_object_name": "BEIDOU-3 M1 (C19)",
        "meta_object_id": "2017-069A",
        "meta_epoch": "2025-12-21T09:37:16.890816",
        "meta_mean_motion": 1.86231333,
        "meta_eccentricity": 0.00096297,
        "meta_inclination": 56.5338,
        "meta_ra_of_asc_node": 68.9479,
        "meta_arg_of_pericenter": 302.2645,
        "meta_mean_anomaly": 57.6886,
        "meta_ephemeris_type": 0,
        "meta_classification_type": "U",
        "meta_norad_cat_id": 43001,
        "meta_element_set_no": 999,
        "meta_rev_at_epoch": 5529,
        "meta_bstar": 0,
        "meta_mean_motion_dot": -3.5e-07,
        "meta_mean_motion_ddot": 0,
        "tle_line1": "1 43001U 17069A   25355.40088994 -.00000035  00000+0  00000+0 0  9990",
        "tle_line2": "2 43001  56.5338  68.9479 0009629 302.2645  57.6886  1.86231333 55292"
      },
      "geometry": {
        "type": "Point",
        "coordinates": [
          103.39767821876399,
          40.62886467423781
        ]
      }
    },
    {
      "type": "Feature",
      "properties": {
        "norad_id": 43002,
        "name": "BEIDOU-3 M2 (C20)",
        "group": "beidou",
        "lat": 56.46106920934522,
        "lon": 163.68801257935087,
        "alt_km": 21532.27524268344,
        "timestamp": "2025-12-24T03:53:29.912503+00:00",
        "meta_object_name": "BEIDOU-3 M2 (C20)",
        "meta_object_id": "2017-069B",
        "meta_epoch": "2025-12-22T09:54:58.962816",
        "meta_mean_motion": 1.86231087,
        "meta_eccentricity": 0.00067293,
        "meta_inclination": 56.5339,
        "meta_ra_of_asc_node": 68.9503,
        "meta_arg_of_pericenter": 327.7398,
        "meta_mean_anomaly": 32.2697,
        "meta_ephemeris_type": 0,
        "meta_classification_type": "U",
        "meta_norad_cat_id": 43002,
        "meta_element_set_no": 999,
        "meta_rev_at_epoch": 5530,
        "meta_bstar": 0,
        "meta_mean_motion_dot": -2.8e-07,
        "meta_mean_motion_ddot": 0,
        "tle_line1": "1 43002U 17069B   25356.41318244 -.00000028  00000+0  00000+0 0  9999",
        "tle_line2": "2 43002  56.5339  68.9503 0006729 327.7398  32.2697  1.86231087 55304"
      },
      "geometry": {
        "type": "Point",
        "coordinates": [
          163.68801257935087,
          56.46106920934522
        ]
      }
    },
    {
      "type": "Feature",
      "properties": {
        "norad_id": 43107,
        "name": "BEIDOU-3 M7 (C27)",
        "group": "beidou",
        "lat": -54.19810516311783,
        "lon": -150.10184505839942,
        "alt_km": 21541.541117197525,
        "timestamp": "2025-12-24T03:53:29.912514+00:00",
        "meta_object_name": "BEIDOU-3 M7 (C27)",
        "meta_object_id": "2018-003A",
        "meta_epoch": "2025-12-22T03:44:43.463904",
        "meta_mean_motion": 1.86232634,
        "meta_eccentricity": 0.00029638,
        "meta_inclination": 54.4883,
        "meta_ra_of_asc_node": 308.4878,
        "meta_arg_of_pericenter": 66.6968,
        "meta_mean_anomaly": 293.333,
        "meta_ephemeris_type": 0,
        "meta_classification_type": "U",
        "meta_norad_cat_id": 43107,
        "meta_element_set_no": 999,
        "meta_rev_at_epoch": 5405,
        "meta_bstar": 0,
        "meta_mean_motion_dot": -5.9e-07,
        "meta_mean_motion_ddot": 0,
        "tle_line1": "1 43107U 18003A   25356.15605861 -.00000059  00000+0  00000+0 0  9993",
        "tle_line2": "2 43107  54.4883 308.4878 0002963  66.6968 293.3330  1.86232634 54050"
      },
      "geometry": {
        "type": "Point",
        "coordinates": [
          -150.10184505839942,
          -54.19810516311783
        ]
      }
    },
    {
      "type": "Feature",
      "properties": {
        "norad_id": 43108,
        "name": "BEIDOU-3 M8 (C28)",
        "group": "beidou",
        "lat": -43.745532172665484,
        "lon": -94.69350501575828,
        "alt_km": 21521.296334274874,
        "timestamp": "2025-12-24T03:53:29.912526+00:00",
        "meta_object_name": "BEIDOU-3 M8 (C28)",
        "meta_object_id": "2018-003B",
        "meta_epoch": "2025-12-23T04:11:55.355136",
        "meta_mean_motion": 1.86231118,
        "meta_eccentricity": 0.00045869,
        "meta_inclination": 54.4802,
        "meta_ra_of_asc_node": 308.4348,
        "meta_arg_of_pericenter": 278.9101,
        "meta_mean_anomaly": 81.0404,
        "meta_ephemeris_type": 0,
        "meta_classification_type": "U",
        "meta_norad_cat_id": 43108,
        "meta_element_set_no": 999,
        "meta_rev_at_epoch": 5408,
        "meta_bstar": 0,
        "meta_mean_motion_dot": -5.5e-07,
        "meta_mean_motion_ddot": 0,
        "tle_line1": "1 43108U 18003B   25357.17494624 -.00000055  00000+0  00000+0 0  9996",
        "tle_line2": "2 43108  54.4802 308.4348 0004586 278.9101  81.0404  1.86231118 54087"
      },
      "geometry": {
        "type": "Point",
        "coordinates": [
          -94.69350501575828,
          -43.745532172665484
        ]
      }
    }
  ]
}